NORAD_CAT_ID,OBJECT_NAME,OBJECT_TYPE,EPOCH,MEAN_MOTION,ECCENTRICITY,INCLINATION,RA_OF_ASC_NODE,ARG_OF_PERICENTER,MEAN_ANOMALY,BSTAR,MEAN_MOTION_DOT,MEAN_MOTION_DDOT,TLE_LINE0,TLE_LINE1,TLE_LINE2,SEMIMAJOR_AXIS,PERIOD,APOGEE,PERIGEE,DECAYED
52671.0,STARLINK-4071,PAYLOAD,2024-02-25 19:51:11,15.08843195,0.0001354,53.2168,248.9575,95.504,264.6106,0.00014754,2.061e-05,0.0,0 STARLINK-4071,1 52671U 22053R   24056.82721829  .00002061  00000-0  14754-3 0  9992,2 52671  53.2168 248.9575 0001354  95.5040 264.6106 15.08843195 98897,6917.871,95.437,540.672,538.799,0.0
52671.0,STARLINK-4071,PAYLOAD,2024-02-26 13:20:27,15.08833131,0.0001349,53.2173,245.6854,91.2411,268.8736,9.8998e-06,-1.3e-06,0.0,0 STARLINK-4071,1 52671U 22053R   24057.55587057 -.00000130  00000-0  98998-5 0  9996,2 52671  53.2173 245.6854 0001349  91.2411 268.8736 15.08833131 98586,6917.901,95.438,540.7,538.833,0.0
52671.0,STARLINK-4071,PAYLOAD,2024-02-26 19:42:00,15.0882931,0.000136,53.217,244.4964,90.8239,269.2909,-2.863e-05,-7.43e-06,0.0,0 STARLINK-4071,1 52671U 22053R   24057.82083554 -.00000743  00000-0 -28630-4 0  9995,2 52671  53.2170 244.4964 0001360  90.8239 269.2909 15.08829310 99041,6917.913,95.438,540.719,538.837,0.0
52671.0,STARLINK-4071,PAYLOAD,2024-02-27 05:14:18,15.08832604,0.0001343,53.217,242.712,87.7314,272.3832,2.1134e-06,-2.54e-06,0.0,0 STARLINK-4071,1 52671U 22053R   24058.21827475 -.00000254  00000-0  21134-5 0  9996,2 52671  53.2170 242.7120 0001343  87.7314 272.3832 15.08832604 99103,6917.903,95.438,540.697,538.839,0.0
52671.0,STARLINK-4071,PAYLOAD,2024-02-27 19:32:46,15.08843151,0.0001202,53.2157,240.0337,82.62,277.4929,5.3073e-05,5.57e-06,0.0,0 STARLINK-4071,1 52671U 22053R   24058.81442799  .00000557  00000-0  53073-4 0  9995,2 52671  53.2157 240.0337 0001202  82.6200 277.4929 15.08843151 98775,6917.871,95.437,540.567,538.904,0.0
52671.0,STARLINK-4071,PAYLOAD,2024-02-28 11:26:38,15.08837029,0.0001254,53.2161,237.0615,85.2449,274.8687,0.00018743,2.696e-05,0.0,0 STARLINK-4071,1 52671U 22053R   24059.47683013  .00002696  00000-0  18743-3 0  9994,2 52671  53.2161 237.0615 0001254  85.2449 274.8687 15.08837029 99293,6917.889,95.438,540.622,538.887,0.0
52671.0,STARLINK-4071,PAYLOAD,2024-02-28 19:23:33,15.08842672,0.0001253,53.2161,235.575,85.1899,274.9236,0.00024008,3.535e-05,0.0,0 STARLINK-4071,1 52671U 22053R   24059.80802761  .00003535  00000-0  24008-3 0  9998,2 52671  53.2161 235.5750 0001253  85.1899 274.9236 15.08842672 99340,6917.872,95.437,540.604,538.87,0.0
52671.0,STARLINK-4071,PAYLOAD,2024-02-29 04:55:52,15.08844785,0.0001271,53.2153,233.7909,82.8507,277.263,0.00020683,3.006e-05,0.0,0 STARLINK-4071,1 52671U 22053R   24060.20546849  .00003006  00000-0  20683-3 0  9994,2 52671  53.2153 233.7909 0001271  82.8507 277.2630 15.08844785 98987,6917.866,95.437,540.61,538.852,0.0
52671.0,STARLINK-4071,PAYLOAD,2024-02-29 20:49:43,15.08850156,0.0001313,53.2165,230.8161,88.366,271.7483,0.00011782,1.588e-05,0.0,0 STARLINK-4071,1 52671U 22053R   24060.86786389  .00001588  00000-0  11782-3 0  9994,2 52671  53.2165 230.8161 0001313  88.3660 271.7483 15.08850156 99509,6917.849,95.437,540.623,538.806,0.0
52671.0,STARLINK-4071,PAYLOAD,2024-03-01 14:18:58,15.08839802,0.0001332,53.2161,227.5465,88.6948,271.4197,2.239e-05,6.8e-07,0.0,0 STARLINK-4071,1 52671U 22053R   24061.59651212  .00000068  00000-0  22390-4 0  9991,2 52671  53.2161 227.5465 0001332  88.6948 271.4197 15.08839802 99614,6917.881,95.438,540.667,538.825,0.0
52671.0,STARLINK-4071,PAYLOAD,2024-03-01 17:29:44,15.08841814,0.0001371,53.2158,226.9515,89.9285,270.1864,3.2584e-05,2.31e-06,0.0,0 STARLINK-4071,1 52671U 22053R   24061.72899024  .00000231  00000-0  32584-4 0  9999,2 52671  53.2158 226.9515 0001371  89.9285 270.1864 15.08841814 99635,6917.875,95.437,540.688,538.791,0.0
52671.0,STARLINK-4071,PAYLOAD,2024-03-02 14:09:45,15.08842839,0.0001328,53.2167,223.0852,93.0699,267.0445,8.5507e-05,1.073e-05,0.0,0 STARLINK-4071,1 52671U 22053R   24062.59010815  .00001073  00000-0  85507-4 0  9996,2 52671  53.2167 223.0852 0001328  93.0699 267.0445 15.08842839 99766,6917.872,95.437,540.655,538.818,0.0
52671.0,STARLINK-4071,PAYLOAD,2024-03-02 17:20:31,15.08844765,0.0001226,53.217,222.4908,92.2923,267.821,0.00012083,1.636e-05,0.0,0 STARLINK-4071,1 52671U 22053R   24062.72258636  .00001636  00000-0  12083-3 0  9999,2 52671  53.2170 222.4908 0001226  92.2923 267.8210 15.08844765 99367,6917.866,95.437,540.579,538.883,0.0
52671.0,STARLINK-4071,PAYLOAD,2024-03-03 10:49:46,15.08838814,0.0001421,53.2174,219.2201,94.2342,265.8813,0.00012151,1.646e-05,0.0,0 STARLINK-4071,1 52671U 22053R   24063.45123148  .00001646  00000-0  12151-3 0  9996,2 52671  53.2174 219.2201 0001421  94.2342 265.8813 15.08838814 99472,6917.884,95.438,540.732,538.766,0.0
52671.0,STARLINK-4071,PAYLOAD,2024-03-03 14:00:32,15.08841641,0.0001441,53.2166,218.6253,92.7288,267.3869,0.00013857,1.918e-05,0.0,0 STARLINK-4071,1 52671U 22053R   24063.58371003  .00001918  00000-0  13857-3 0  9991,2 52671  53.2166 218.6253 0001441  92.7288 267.3869 15.08841641 99916,6917.875,95.437,540.737,538.744,0.0
52671.0,STARLINK-4071,PAYLOAD,2024-03-03 15:35:55,15.08841989,0.0001424,53.2174,218.328,94.0883,266.0272,0.00014063,1.951e-05,0.0,0 STARLINK-4071,1 52671U 22053R   24063.64994903  .00001951  00000-0  14063-3 0  9995,2 52671  53.2174 218.3280 0001424  94.0883 266.0272 15.08841989 99929,6917.874,95.437,540.724,538.754,0.0
52671.0,STARLINK-4071,PAYLOAD,2024-03-04 13:51:19,15.08846231,0.0001402,53.2167,214.1649,91.1367,268.9785,5.5855e-06,-1.99e-06,0.0,0 STARLINK-4071,1 52671U 22053R   24064.57730514 -.00000199  00000-0  55855-5 0  9994,2 52671  53.2167 214.1649 0001402  91.1367 268.9785 15.08846231 99649,6917.861,95.437,540.696,538.756,0.0
52671.0,STARLINK-4071,PAYLOAD,2024-03-04 17:02:05,15.08844894,0.0001474,53.2168,213.571,93.5336,266.5824,7.1537e-05,8.51e-06,0.0,0 STARLINK-4071,1 52671U 22053R   24064.70978513  .00000851  00000-0  71537-4 0  9990,2 52671  53.2168 213.5710 0001474  93.5336 266.5824 15.08844894100085,6917.865,95.437,540.75,538.711,0.0
52671.0,STARLINK-4071,PAYLOAD,2024-03-05 13:42:06,15.08832926,0.0001629,53.2173,209.7081,101.2268,258.8907,-8.5435e-05,-1.647e-05,0.0,0 STARLINK-4071,1 52671U 22053R   24065.57091378 -.00001647  00000-0 -85435-4 0  9999,2 52671  53.2173 209.7081 0001629 101.2268 258.8907 15.08832926100216,6917.902,95.438,540.894,538.64,0.0
52671.0,STARLINK-4071,PAYLOAD,2024-03-05 18:28:16,15.08836654,0.0001517,53.2167,208.8131,85.7753,274.3413,-2.4915e-05,-6.84e-06,0.0,0 STARLINK-4071,1 52671U 22053R   24065.76963291 -.00000684  00000-0 -24915-4 0  9998,2 52671  53.2167 208.8131 0001517  85.7753 274.3413 15.08836654 99827,6917.891,95.438,540.805,538.706,0.0
52671.0,STARLINK-4071,PAYLOAD,2024-03-06 13:32:54,15.08833375,0.0001588,53.2172,205.2432,90.8016,269.3158,-3.7698e-05,-8.88e-06,0.0,0 STARLINK-4071,1 52671U 22053R   24066.56451792 -.00000888  00000-0 -37698-4 0  9993,2 52671  53.2172 205.2432 0001588  90.8016 269.3158 15.08833375100364,6917.901,95.438,540.864,538.667,0.0
52671.0,STARLINK-4071,PAYLOAD,2024-03-07 02:15:59,15.08850779,0.0001522,53.2182,202.8624,77.3319,282.7843,-0.00015734,-2.792e-05,0.0,0 STARLINK-4071,1 52671U 22053R   24067.09443373 -.00002792  00000-0 -15734-3 0  9990,2 52671  53.2182 202.8624 0001522  77.3319 282.7843 15.08850779100025,6917.847,95.437,540.765,538.66,0.0
52671.0,STARLINK-4071,PAYLOAD,2024-03-07 14:59:04,15.08835006,0.0001305,53.216,200.4864,91.8945,268.2197,0.0001785,2.554e-05,0.0,0 STARLINK-4071,1 52671U 22053R   24067.62436234  .00002554  00000-0  17850-3 0  9992,2 52671  53.2160 200.4864 0001305  91.8945 268.2197 15.08835006100528,6917.896,95.438,540.663,538.858,0.0
52671.0,STARLINK-4071,PAYLOAD,2024-03-08 14:49:51,15.08849428,0.000139,53.2168,196.0256,86.2033,273.9118,0.00019649,2.841e-05,0.0,0 STARLINK-4071,1 52671U 22053R   24068.61795502  .00002841  00000-0  19649-3 0  9995,2 52671  53.2168 196.0256 0001390  86.2033 273.9118 15.08849428100676,6917.852,95.437,540.678,538.755,0.0
52671.0,STARLINK-4071,PAYLOAD,2024-03-09 11:29:52,15.08830795,0.0001263,53.2193,192.1566,123.3265,236.7848,0.00020355,2.952e-05,0.0,0 STARLINK-4071,1 52671U 22053R   24069.47908080  .00002952  00000-0  20355-3 0  9996,2 52671  53.2193 192.1566 0001263 123.3265 236.7848 15.08830795100386,6917.909,95.438,540.647,538.9,0.0
52671.0,STARLINK-4071,PAYLOAD,2024-03-09 14:40:38,15.08829892,9.14e-05,53.2204,191.5639,114.227,245.8818,0.00019053,2.745e-05,0.0,0 STARLINK-4071,1 52671U 22053R   24069.61156249  .00002745  00000-0  19053-3 0  9997,2 52671  53.2204 191.5639 0000914 114.2270 245.8818 15.08829892100823,6917.911,95.438,540.409,539.144,0.0
52671.0,STARLINK-4071,PAYLOAD,2024-03-09 17:51:24,15.08845477,0.000138,53.2181,190.97,96.5301,263.5848,2.5932e-05,1.25e-06,0.0,0 STARLINK-4071,1 52671U 22053R   24069.74403726  .00000125  00000-0  25932-4 0  9990,2 52671  53.2181 190.9700 0001380  96.5301 263.5848 15.08845477100427,6917.864,95.437,540.683,538.774,0.0
52671.0,STARLINK-4071,PAYLOAD,2024-03-10 11:20:39,15.08839862,7.85e-05,53.2148,187.6966,100.6845,259.4236,-7.8164e-06,-4.12e-06,0.0,0 STARLINK-4071,1 52671U 22053R   24070.47268116 -.00000412  00000-0 -78164-5 0  9991,2 52671  53.2148 187.6966 0000785 100.6845 259.4236 15.08839862100533,6917.881,95.438,540.289,539.203,0.0
52671.0,STARLINK-4071,PAYLOAD,2024-03-10 14:31:26,15.08825969,4.13e-05,53.2146,187.1038,56.0979,304.0052,0.00020657,3e-05,0.0,0 STARLINK-4071,1 52671U 22053R   24070.60516435  .00003000  00000-0  20657-3 0  9992,2 52671  53.2146 187.1038 0000413  56.0979 304.0052 15.08825969100970,6917.923,95.438,540.074,539.503,0.0
52671.0,STARLINK-4071,PAYLOAD,2024-03-11 11:11:26,15.0883572,0.0001436,53.2153,183.2364,106.3221,253.7929,0.00013785,1.906e-05,0.0,0 STARLINK-4071,1 52671U 22053R   24071.46628281  .00001906  00000-0  13785-3 0  9997,2 52671  53.2153 183.2364 0001436 106.3221 253.7929 15.08835720100689,6917.893,95.438,540.752,538.765,0.0
